[{"OBJECT_NAME":"ONEWEB-0184","OBJECT_ID":"2021-031B","EPOCH":"2026-06-06T15:32:47.543136","MEAN_MOTION":13.14503094,"ECCENTRICITY":0.0001136,"INCLINATION":87.8964,"RA_OF_ASC_NODE":291.8006,"ARG_OF_PERICENTER":115.2225,"MEAN_ANOMALY":244.9023,"EPHEMERIS_TYPE":0,"CLASSIFICATION_TYPE":"U","NORAD_CAT_ID":48211,"ELEMENT_SET_NO":999,"REV_AT_EPOCH":24690,"BSTAR":0.00010487,"MEAN_MOTION_DOT":5.2e-07,"MEAN_MOTION_DDOT":0.0},{"OBJECT_NAME":"ONEWEB-0179","OBJECT_ID":"2021-031C","EPOCH":"2026-06-06T15:15:48.987360","MEAN_MOTION":14.25516351,"ECCENTRICITY":0.0218832,"INCLINATION":87.898,"RA_OF_ASC_NODE":289.5125,"ARG_OF_PERICENTER":291.9898,"MEAN_ANOMALY":65.8172,"EPHEMERIS_TYPE":0,"CLASSIFICATION_TYPE":"U","NORAD_CAT_ID":48212,"ELEMENT_SET_NO":999,"REV_AT_EPOCH":24754,"BSTAR":5.7980000000000004e-05,"MEAN_MOTION_DOT":1.92e-06,"MEAN_MOTION_DDOT":0.0},{"OBJECT_NAME":"ONEWEB-0180","OBJECT_ID":"2021-031D","EPOCH":"2026-06-06T15:37:22.035072","MEAN_MOTION":13.14502798,"ECCENTRICITY":0.0001956,"INCLINATION":87.8958,"RA_OF_ASC_NODE":291.7962,"ARG_OF_PERICENTER":113.6342,"MEAN_ANOMALY":246.4993,"EPHEMERIS_TYPE":0,"CLASSIFICATION_TYPE":"U","NORAD_CAT_ID":48213,"ELEMENT_SET_NO":999,"REV_AT_EPOCH":24683,"BSTAR":0.00031987,"MEAN_MOTION_DOT":1.31e-06,"MEAN_MOTION_DDOT":0.0},{"OBJECT_NAME":"ONEWEB-0218","OBJECT_ID":"2021-031E","EPOCH":"2026-06-06T16:09:20.007936","MEAN_MOTION":13.14502114,"ECCENTRICITY":0.0001317,"INCLINATION":87.895,"RA_OF_ASC_NODE":291.7904,"ARG_OF_PERICENTER":125.5244,"MEAN_ANOMALY":234.6008,"EPHEMERIS_TYPE":0,"CLASSIFICATION_TYPE":"U","NORAD_CAT_ID":48214,"ELEMENT_SET_NO":999,"REV_AT_EPOCH":24699,"BSTAR":0.0007886400000000001,"MEAN_MOTION_DOT":3.05e-06,"MEAN_MOTION_DDOT":0.0},{"OBJECT_NAME":"ONEWEB-0209","OBJECT_ID":"2021-031F","EPOCH":"2026-06-06T15:53:20.300928","MEAN_MOTION":13.14505145,"ECCENTRICITY":0.0001988,"INCLINATION":87.8951,"RA_OF_ASC_NODE":291.8109,"ARG_OF_PERICENTER":105.8277,"MEAN_ANOMALY":254.3072,"EPHEMERIS_TYPE":0,"CLASSIFICATION_TYPE":"U","NORAD_CAT_ID":48215,"ELEMENT_SET_NO":999,"REV_AT_EPOCH":24699,"BSTAR":0.00077533,"MEAN_MOTION_DOT":3e-06,"MEAN_MOTION_DDOT":0.0},{"OBJECT_NAME":"ONEWEB-0198","OBJECT_ID":"2021-031G","EPOCH":"2026-06-06T15:30:42.869664","MEAN_MOTION":13.14502634,"ECCENTRICITY":0.0001801,"INCLINATION":87.8946,"RA_OF_ASC_NODE":291.8141,"ARG_OF_PERICENTER":113.7546,"MEAN_ANOMALY":246.3773,"EPHEMERIS_TYPE":0,"CLASSIFICATION_TYPE":"U","NORAD_CAT_ID":48216,"ELEMENT_SET_NO":999,"REV_AT_EPOCH":24710,"BSTAR":1.8399e-05,"MEAN_MOTION_DOT":2e-07,"MEAN_MOTION_DDOT":0.0},{"OBJECT_NAME":"ONEWEB-0189","OBJECT_ID":"2021-031H","EPOCH":"2026-06-06T03:01:31.372320","MEAN_MOTION":13.14502242,"ECCENTRICITY":0.0001784,"INCLINATION":87.8958,"RA_OF_ASC_NODE":291.9028,"ARG_OF_PERICENTER":110.6617,"MEAN_ANOMALY":249.4704,"EPHEMERIS_TYPE":0,"CLASSIFICATION_TYPE":"U","NORAD_CAT_ID":48217,"ELEMENT_SET_NO":999,"REV_AT_EPOCH":24677,"BSTAR":0.0006183,"MEAN_MOTION_DOT":2.42e-06,"MEAN_MOTION_DDOT":0.0},{"OBJECT_NAME":"ONEWEB-0196","OBJECT_ID":"2021-031J","EPOCH":"2026-06-06T15:16:48.914400","MEAN_MOTION":13.14502719,"ECCENTRICITY":0.0001899,"INCLINATION":87.8957,"RA_OF_ASC_NODE":291.8102,"ARG_OF_PERICENTER":104.8884,"MEAN_ANOMALY":255.2456,"EPHEMERIS_TYPE":0,"CLASSIFICATION_TYPE":"U","NORAD_CAT_ID":48218,"ELEMENT_SET_NO":999,"REV_AT_EPOCH":24684,"BSTAR":-0.0003017,"MEAN_MOTION_DOT":-9.9e-07,"MEAN_MOTION_DDOT":0.0},{"OBJECT_NAME":"ONEWEB-0183","OBJECT_ID":"2021-031K","EPOCH":"2026-06-06T14:40:17.014656","MEAN_MOTION":13.14502588,"ECCENTRICITY":0.0002048,"INCLINATION":87.8958,"RA_OF_ASC_NODE":291.8135,"ARG_OF_PERICENTER":98.1115,"MEAN_ANOMALY":262.0247,"EPHEMERIS_TYPE":0,"CLASSIFICATION_TYPE":"U","NORAD_CAT_ID":48219,"ELEMENT_SET_NO":999,"REV_AT_EPOCH":24693,"BSTAR":7.735100000000001e-05,"MEAN_MOTION_DOT":4.1e-07,"MEAN_MOTION_DDOT":0.0},{"OBJECT_NAME":"ONEWEB-0185","OBJECT_ID":"2021-031L","EPOCH":"2026-06-06T15:17:56.471424","MEAN_MOTION":13.1450297,"ECCENTRICITY":0.0002254,"INCLINATION":87.8963,"RA_OF_ASC_NODE":291.8011,"ARG_OF_PERICENTER":105.1064,"MEAN_ANOMALY":255.0315,"EPHEMERIS_TYPE":0,"CLASSIFICATION_TYPE":"U","NORAD_CAT_ID":48220,"ELEMENT_SET_NO":999,"REV_AT_EPOCH":24686,"BSTAR":-0.00025979000000000003,"MEAN_MOTION_DOT":-8.4e-07,"MEAN_MOTION_DDOT":0.0},{"OBJECT_NAME":"ONEWEB-0187","OBJECT_ID":"2021-031M","EPOCH":"2026-06-06T16:38:49.568064","MEAN_MOTION":13.14501836,"ECCENTRICITY":0.0001999,"INCLINATION":87.895,"RA_OF_ASC_NODE":291.8062,"ARG_OF_PERICENTER":106.2653,"MEAN_ANOMALY":253.8697,"EPHEMERIS_TYPE":0,"CLASSIFICATION_TYPE":"U","NORAD_CAT_ID":48221,"ELEMENT_SET_NO":999,"REV_AT_EPOCH":24688,"BSTAR":-7.0684e-05,"MEAN_MOTION_DOT":-1.3e-07,"MEAN_MOTION_DDOT":0.0},{"OBJECT_NAME":"ONEWEB-0192","OBJECT_ID":"2021-031N","EPOCH":"2026-06-06T15:55:37.238016","MEAN_MOTION":13.14504718,"ECCENTRICITY":0.0001773,"INCLINATION":87.8951,"RA_OF_ASC_NODE":291.8027,"ARG_OF_PERICENTER":102.4571,"MEAN_ANOMALY":257.6757,"EPHEMERIS_TYPE":0,"CLASSIFICATION_TYPE":"U","NORAD_CAT_ID":48222,"ELEMENT_SET_NO":999,"REV_AT_EPOCH":24679,"BSTAR":0.0006754700000000001,"MEAN_MOTION_DOT":2.63e-06,"MEAN_MOTION_DDOT":0.0},{"OBJECT_NAME":"ONEWEB-0219","OBJECT_ID":"2021-031P","EPOCH":"2026-06-06T15:25:55.956000","MEAN_MOTION":13.14504504,"ECCENTRICITY":0.0002055,"INCLINATION":87.8953,"RA_OF_ASC_NODE":291.7988,"ARG_OF_PERICENTER":105.6535,"MEAN_ANOMALY":254.4822,"EPHEMERIS_TYPE":0,"CLASSIFICATION_TYPE":"U","NORAD_CAT_ID":48223,"ELEMENT_SET_NO":999,"REV_AT_EPOCH":24699,"BSTAR":-0.00016125999999999998,"MEAN_MOTION_DOT":-4.7e-07,"MEAN_MOTION_DDOT":0.0},{"OBJECT_NAME":"ONEWEB-0202","OBJECT_ID":"2021-031Q","EPOCH":"2026-06-06T09:29:43.246752","MEAN_MOTION":13.14502566,"ECCENTRICITY":0.0001477,"INCLINATION":87.8956,"RA_OF_ASC_NODE":291.8593,"ARG_OF_PERICENTER":118.8408,"MEAN_ANOMALY":241.2871,"EPHEMERIS_TYPE":0,"CLASSIFICATION_TYPE":"U","NORAD_CAT_ID":48224,"ELEMENT_SET_NO":999,"REV_AT_EPOCH":24694,"BSTAR":-0.00045668,"MEAN_MOTION_DOT":-1.57e-06,"MEAN_MOTION_DDOT":0.0},{"OBJECT_NAME":"ONEWEB-0204","OBJECT_ID":"2021-031R","EPOCH":"2026-06-06T15:47:38.927616","MEAN_MOTION":13.14502233,"ECCENTRICITY":0.0002196,"INCLINATION":87.8956,"RA_OF_ASC_NODE":291.8023,"ARG_OF_PERICENTER":97.6044,"MEAN_ANOMALY":262.5336,"EPHEMERIS_TYPE":0,"CLASSIFICATION_TYPE":"U","NORAD_CAT_ID":48225,"ELEMENT_SET_NO":999,"REV_AT_EPOCH":24687,"BSTAR":0.00067334,"MEAN_MOTION_DOT":2.62e-06,"MEAN_MOTION_DDOT":0.0},{"OBJECT_NAME":"ONEWEB-0205","OBJECT_ID":"2021-031S","EPOCH":"2026-06-06T15:12:14.323968","MEAN_MOTION":13.14504289,"ECCENTRICITY":0.0001954,"INCLINATION":87.8966,"RA_OF_ASC_NODE":291.7994,"ARG_OF_PERICENTER":108.2187,"MEAN_ANOMALY":251.9155,"EPHEMERIS_TYPE":0,"CLASSIFICATION_TYPE":"U","NORAD_CAT_ID":48226,"ELEMENT_SET_NO":999,"REV_AT_EPOCH":24688,"BSTAR":-0.0005713700000000001,"MEAN_MOTION_DOT":-1.99e-06,"MEAN_MOTION_DDOT":0.0}]